KUIPER-00035            
1 63748U 25088AA  25198.91667824 -.00014282  00000+0 -76584-3 0  9990
2 63748  51.8792  76.3162 0004010  59.5285  23.9873 15.13811077  5175
KUIPER-00037            
1 63749U 25088AB  25198.91667824 -.00008778  00000+0 -44797-3 0  9995
2 63749  51.8826  75.7867 0002958 344.1914 300.0671 15.15036838  5036
KUIPER-00038            
1 63750U 25088AC  25199.01581999  .00013121  00000+0  36045-3 0  9990
2 63750  51.8701  71.1753 0004854  47.2877 312.8518 15.37547829 12557
KUIPER-00039            
1 64500U 25134A   25199.19780877  .00017574  00000+0  52297-3 0  9994
2 64500  51.8669 211.8023 0007473 202.0399 158.0266 15.34777221  4589
KUIPER-00040            
1 64501U 25134B   25199.21291420 -.00126606  00000+0 -40034-2 0  9993
2 64501  51.8658 211.8960 0013100 208.4560 151.5711 15.32616403  4587
KUIPER-00041            
1 64502U 25134C   25198.91667824 -.00771387  00000+0 -28239-1 0  9999
2 64502  51.8703 213.2912 0009207 209.4002 319.2808 15.29854612  1643
KUIPER-00042            
1 64503U 25134D   25199.20267507  .00021372  00000+0  63853-3 0  9990
2 64503  51.8651 211.8284 0008510 206.3446 153.7108 15.34508547  4585
KUIPER-00043            
1 64504U 25134E   25199.19901169  .00014828  00000+0  44431-3 0  9997
2 64504  51.8684 211.8106 0007966 197.6741 162.3968 15.34692963  4967
